CUTE-1 (CO-55)          
1 27844U 03031E   25017.96243427  .00000726  00000+0  33668-3 0  9997
2 27844  98.6783  28.0792 0008745 238.4677 121.5647 14.23770100118345
CUBESAT XI-IV (CO-57)   
1 27848U 03031J   25017.91593934  .00000601  00000+0  28527-3 0  9997
2 27848  98.6810  28.1434 0008511 257.4119 102.6107 14.23137815118078
CUBESAT XI-V            
1 28895U 05043F   25017.90106498  .00003667  00000+0  61968-3 0  9990
2 28895  98.2262 160.7652 0015570  41.9098 318.3296 14.69936538 25978
CUTE-1.7+APD II (CO-65) 
1 32785U 08021C   25018.15261812  .00009485  00000+0  73442-3 0  9996
2 32785  97.7685 348.7018 0009229 352.9206   7.1886 15.01630678907754
AAUSAT-II               
1 32788U 08021F   25017.69390048  .00084598  00000+0  19371-2 0  9999
2 32788  97.6053   8.0716 0006806 108.1334 252.0654 15.42450103911079
CANX-2                  
1 32790U 08021H   25017.88029549  .00007398  00000+0  60794-3 0  9997
2 32790  97.7982 346.9811 0011858 345.6518  14.4366 14.99410290907494
SEEDS II (CO-66)        
1 32791U 08021J   25017.53896895  .00020029  00000+0  11439-2 0  9993
2 32791  97.7150 355.1208 0002943 328.4093  31.6961 15.12751228908821
SWISSCUBE               
1 35932U 09051B   25017.63314432  .00002463  00000+0  51630-3 0  9990
2 35932  98.4463 271.1238 0007680  23.8236 336.3318 14.60618377813841
BEESAT-1                
1 35933U 09051C   25017.69173090  .00001979  00000+0  42117-3 0  9991
2 35933  98.4401 271.7818 0006289  37.0174 323.1458 14.60138908813910
ITUPSAT1                
1 35935U 09051E   25017.93594954  .00001917  00000+0  41848-3 0  9998
2 35935  98.4494 271.6822 0008609  41.0878 319.0968 14.58987191813566
TISAT 1                 
1 36799U 10035E   25017.70634129  .00017641  00000+0  10595-2 0  9990
2 36799  98.0689 283.3996 0002240 202.9919 157.1209 15.10968793789554
AEROCUBE 4.5A           
1 38767U 12048K   25018.04609833  .00039692  00000+0  14091-2 0  9990
2 38767  64.6535 337.1234 0109162 312.7161  46.4812 15.23285588293034
AEROCUBE 4.5B           
1 38768U 12048L   25017.93446667  .00175532  00000+0  15425-2 0  9998
2 38768  64.6381 236.0751 0052076 298.6553  60.9364 15.66232148294500
STRAND-1                
1 39090U 13009E   25018.04598753  .00000752  00000+0  27008-3 0  9994
2 39090  98.3773 206.5015 0008345 337.5276  22.5544 14.36586250623106
BRITE-AUSTRIA           
1 39091U 13009F   25017.79532598  .00000435  00000+0  16381-3 0  9991
2 39091  98.3825 205.5284 0009972 345.3642  14.7254 14.36153315623061
NEE-01 PEGASO           
1 39151U 13018B   25017.81914251  .00006046  00000+0  64578-3 0  9996
2 39151  98.0541 143.8303 0014855  60.9096 299.3606 14.89099578633875
ESTCUBE 1               
1 39161U 13021C   25017.95769945  .00003739  00000+0  51678-3 0  9997
2 39161  97.8018  83.8967 0007398 250.7946 109.2465 14.78661143628842
POPACS 1                
1 39268U 13055D   25017.65712852  .00059497 -24389-6  72947-3 0  9992
2 39268  80.9766 260.3178 0312200 108.9030 254.6320 15.18992938592791
POPACS 2                
1 39269U 13055E   25017.68045025  .00033139  00000+0  69109-3 0  9994
2 39269  80.9993   4.6103 0506916  23.6174 338.7428 14.68203011586946
POPACS 3                
1 39270U 13055F   25018.06983165  .00015262  00000+0  39928-3 0  9998
2 39270  81.0043  62.7246 0601546 185.5888 173.8392 14.43555541584592
ZACUBE-1 (TSHEPISOSAT)  
1 39417U 13066B   25017.86985337  .00007548  00000+0  69779-3 0  9998
2 39417  97.7629 336.0588 0046598 166.2889 193.9609 14.94022658603581
WNISAT-1                
1 39423U 13066H   25018.07503512  .00001333  00000+0  25616-3 0  9998
2 39423  97.6657 201.1377 0168069  54.1773 307.4911 14.56491504591910
TRITON-1                
1 39427U 13066M   25018.06441399  .00004971  00000+0  65105-3 0  9993
2 39427  97.8418 295.5704 0098685 108.1259 253.0729 14.77409257598093
DELFI-N3XT              
1 39428U 13066N   25017.74841026  .00010078  00000+0  11087-2 0  9993
2 39428  97.8382 297.3404 0092006 109.2076 251.9122 14.84697210597854
GOMX-1                  
1 39430U 13066Q   25018.01704416  .00004760  00000+0  75941-3 0  9999
2 39430  97.7011 245.3473 0133701 288.6817  69.9914 14.66521594594503
CUBEBUG-2 (LO-74)       
1 39440U 13066AA  25017.80299709  .00008925  00000+0  95044-3 0  9993
2 39440  97.8363 323.7083 0063085 291.4325  68.0169 14.87676371600198
NEE-02 KRYSAOR          
1 39441U 13066AB  25017.81875444  .00005606  00000+0  66814-3 0  9997
2 39441  97.8440 318.5438 0069762 317.9707  41.6166 14.82956675599719
FUNCUBE-1 (AO-73)       
1 39444U 13066AE  25017.84988521  .00011428  00000+0  94106-3 0  9998
2 39444  97.7502 339.9405 0043924 141.4294 219.0081 14.98484358602188
UWE-3                   
1 39446U 13066AG  25017.80764709  .00008227  00000+0  82384-3 0  9994
2 39446  97.8084 329.9106 0054142 231.0798 128.5587 14.90547868600622
BRITE-CA1 (TORONTO)     
1 40020U 14033L   25017.96050564  .00002836  00000+0  44735-3 0  9991
2 40020  97.9029 154.1417 0082043 125.4102 235.4802 14.70927310566532
DUCHIFAT-1              
1 40021U 14033M   25017.94133064  .00029777  00000+0  14025-2 0  9998
2 40021  98.1012  20.8375 0012716  88.8241 271.4448 15.19405610576597
NANOSATC-BR1            
1 40024U 14033Q   25017.93697912  .00019012  00000+0  10965-2 0  9997
2 40024  98.0845   6.6382 0006146 143.6145 216.5503 15.12406169576120
QB50P1                  
1 40025U 14033R   25017.87937717  .00014725  00000+0  10005-2 0  9992
2 40025  98.0697 353.0795 0011556 169.1482 190.9995 15.06424510575123
QB50P2                  
1 40032U 14033Y   25017.79441075  .00012091  00000+0  86226-3 0  9991
2 40032  98.0270 343.0844 0010564 117.2511 242.9791 15.04674270574878
PERSEUS-M2              
1 40037U 14033AD  25018.04243262  .00004350  00000+0  42735-3 0  9999
2 40037  97.9447 316.0758 0011837 198.7604 161.3180 14.92645588574357
PERSEUS-M1              
1 40039U 14033AF  25017.75583286  .00004431  00000+0  43622-3 0  9997
2 40039  97.9209 311.2018 0011638 198.8057 161.2733 14.92550703573663
POLYITAN-1              
1 40042U 14033AJ  25017.89798421  .00021559  00000+0  12499-2 0  9992
2 40042  98.0937 358.7780 0012663 121.5004 238.7464 15.12137404575174
TIGRISAT                
1 40043U 14033AK  25017.97236314  .00004404  00000+0  55440-3 0  9994
2 40043  97.7140 178.1294 0052106 323.8573  35.9123 14.81567055569531
AEROCUBE 6A             
1 40045U 14033AM  25017.98006000  .00010719  00000+0  11209-2 0  9994
2 40045  97.6780 189.9874 0044996 294.4260  65.2266 14.89071799569931
AEROCUBE 6B             
1 40046U 14033AN  25018.01400595  .00012655  00000+0  12896-2 0  9991
2 40046  97.6753 188.9494 0043474 288.4622  71.1873 14.90115455570150
CANX-4                  
1 40055U 14034C   25018.02524605  .00002528  00000+0  34506-3 0  9993
2 40055  98.3760 227.7778 0012254 220.9273 139.1018 14.79544176568334
CANX-5                  
1 40056U 14034D   25017.55549600  .00002441  00000+0  33340-3 0  9992
2 40056  98.3761 227.3026 0012214 222.7969 137.2291 14.79553415559042
UKUBE-1                 
1 40074U 14037F   25017.81172058  .00015447  00000+0  12118-2 0  9992
2 40074  98.3736 328.2676 0002916  66.4042 293.7486 15.01048414570893
BRITE-PL2 (HEWELIUSZ)   
1 40119U 14049B   25017.90720471  .00004740  00000+0  48027-3 0  9996
2 40119  97.8852 123.0436 0015485  21.5528 338.6339 14.91317378564555
AEROCUBE 5C             
1 40965U 15058B   25017.82896689  .00008288  00000+0  69919-3 0  9996
2 40965  64.7687  60.8977 0183128 244.2493 113.9618 14.86597052288905
AEROCUBE 7              
1 40966U 15058C   25017.58177818  .00009892  00000+0  78818-3 0  9996
2 40966  64.7655  53.0196 0176202 244.0631 114.2232 14.89356748289001
FOX-1A (AO-85)          
1 40967U 15058D   25017.36674492  .00008164  00000+0  70542-3 0  9990
2 40967  64.7765  76.9752 0180525 239.9640 118.3456 14.86049287 36773
SINOD-D 1               
1 40968U 15058E   25017.31673366  .00010504  00000+0  85080-3 0  9999
2 40968  64.7765  67.3529 0172170 239.0244 119.3855 14.89194683 39645
SNAP-3 ALICE            
1 40970U 15058G   25017.31661393  .00029508  00000+0  14905-2 0  9990
2 40970  64.7680   7.9607 0123479 237.9956 120.9120 15.10492035 37958
LMRST-SAT               
1 40971U 15058H   25017.48781767  .00007886  00000+0  68056-3 0  9999
2 40971  64.7764  72.1980 0182232 241.3102 116.9585 14.85922567 36794
SNAP-3 EDDIE            
1 40972U 15058J   25017.66675723  .00033955  00000+0  16911-2 0  9992
2 40972  64.7653 359.7621 0123910 238.8104 120.0824 15.10873015 40114
PROPCUBE 3              
1 40973U 15058K   25018.15209467  .00009796  00000+0  79708-3 0  9996
2 40973  64.7702  55.6589 0177649 242.6675 115.6257 14.88433595 37978
BISONSAT                
1 40974U 15058L   25017.32710689  .00018916  00000+0  11955-2 0  9991
2 40974  64.7660  22.8436 0147764 241.0140 117.6099 15.00449646 37788
SNAP-3 JIMI             
1 40975U 15058M   25017.47287490  .00012893  00000+0  94749-3 0  9998
2 40975  64.7681  41.7456 0165242 242.0149 116.4160 14.93364905 36954
PROPCUBE 1 (FLORA)      
1 40976U 15058N   25017.32175579  .00007831  00000+0  70217-3 0  9997
2 40976  64.7756  89.3835 0181452 242.7733 115.4788 14.84617614 39545
SINOD-D 3               
1 40977U 15058P   25018.16532775  .00011523  00000+0  96703-3 0  9997
2 40977  64.7737  77.5250 0173030 241.8431 116.5106 14.87742572 37957
HORYU-4                 
1 41340U 16012D   25017.65535300  .00028356  00000+0  10064-2 0  9990
2 41340  30.9996   6.8375 0005901   6.4481 353.6237 15.27849864490845
RAVAN                   
1 41849U 16067B   25017.10645413  .00021811  00000+0  90554-3 0  9993
2 41849  98.0549 214.8057 0011010  19.8877 340.2785 15.23808582448448
CELTEE 1                
1 41850U 16067C   25018.01116121  .00010297  00000+0  60768-3 0  9995
2 41850  98.1063 205.5540 0001057 135.1453 224.9861 15.11748323447825
